NORAD_CAT_ID,OBJECT_NAME,OBJECT_TYPE,EPOCH,MEAN_MOTION,ECCENTRICITY,INCLINATION,RA_OF_ASC_NODE,ARG_OF_PERICENTER,MEAN_ANOMALY,BSTAR,MEAN_MOTION_DOT,MEAN_MOTION_DDOT,TLE_LINE0,TLE_LINE1,TLE_LINE2,SEMIMAJOR_AXIS,PERIOD,APOGEE,PERIGEE,DECAYED
52608.0,STARLINK-3979,PAYLOAD,2022-07-22 04:00:00,15.08826662,0.0001996,53.2167,114.0987,45.1081,202.7911,0.0031223,0.00049737,0.0,0 STARLINK-3979,1 52608U 22052L   22203.16667824  .00049737  00000-0  31223-2 0  9994,2 52608  53.2167 114.0987 0001996  45.1081 202.7911 15.08826662 10974,6917.920999999999,95.438,541.1669999999998,538.405,0.0
52608.0,STARLINK-3979,PAYLOAD,2022-07-22 06:00:00,15.08837653,0.0001956999999999,53.2163,113.7244,44.1982,296.5976,0.0024115,0.00038298,0.0,0 STARLINK-3979,1 52608U 22052L   22203.25001157  .00038298  00000-0  24115-2 0  9997,2 52608  53.2163 113.7244 0001957  44.1982 296.5976 15.08837653  1309,6917.888000000001,95.438,541.106,538.399,0.0
52608.0,STARLINK-3979,PAYLOAD,2022-07-22 20:00:01,15.08877681,0.0001735,53.2166,111.1046,51.0752,220.0503,-0.0022552,-0.00036038,0.0,0 STARLINK-3979,1 52608U 22052L   22203.83334491 -.00036038  00000-0 -22552-2 0  9996,2 52608  53.2166 111.1046 0001735  51.0752 220.0503 15.08877681 11078,6917.765,95.435,540.83,538.43,0.0
52608.0,STARLINK-3979,PAYLOAD,2022-07-22 22:00:00,15.08867137,0.0001771,53.2166,110.731,48.6108,315.4253,-0.0016404,-0.0002631999999999,0.0,0 STARLINK-3979,1 52608U 22052L   22203.91667824 -.00026320  00000-0 -16404-2 0  9996,2 52608  53.2166 110.7310 0001771  48.6108 315.4253 15.08867137  1305,6917.797,95.436,540.888,538.437,0.0
52608.0,STARLINK-3979,PAYLOAD,2022-07-23 14:00:01,15.08784394,0.0001704,53.2162,107.7372,50.3292,336.9726,0.0020867,0.00033027,0.0,0 STARLINK-3979,1 52608U 22052L   22204.58335648  .00033027  00000-0  20867-2 0  9994,2 52608  53.2162 107.7372 0001704  50.3292 336.9726 15.08784394  1301,6918.05,95.441,541.094,538.737,0.0
52608.0,STARLINK-3979,PAYLOAD,2022-07-23 22:00:00,15.0882201,0.0001862,53.2164,106.2423,49.6979,349.0859,-0.0014259,-0.00022899,0.0,0 STARLINK-3979,1 52608U 22052L   22204.91667824 -.00022899  00000-0 -14259-2 0  9990,2 52608  53.2164 106.2423 0001862  49.6979 349.0859 15.08822010  1302,6917.935,95.439,541.0880000000002,538.512,0.0
52608.0,STARLINK-3979,PAYLOAD,2022-07-24 04:00:00,15.08789719,0.0001973,53.2163,105.1209,46.4105,271.0506,0.0030794,0.00048994,0.0,0 STARLINK-3979,1 52608U 22052L   22205.16667824  .00048994  00000-0  30794-2 0  9992,2 52608  53.2163 105.1209 0001973  46.4105 271.0506 15.08789719 11278,6918.034000000002,95.441,541.264,538.534,0.0
52608.0,STARLINK-3979,PAYLOAD,2022-07-24 14:00:01,15.08796397,0.0001799,53.2162,103.2485,52.1902,9.7289,0.0032264,0.00051373,0.0,0 STARLINK-3979,1 52608U 22052L   22205.58334491  .00051373  00000-0  32264-2 0  9998,2 52608  53.2162 103.2485 0001799  52.1902   9.7289 15.08796397  1304,6918.014,95.44,541.123,538.634,0.0
52608.0,STARLINK-3979,PAYLOAD,2022-07-24 20:00:01,15.08841963,0.0001906,53.2165,102.1271,52.8096,287.7746,-0.0011389,-0.00018369,0.0,0 STARLINK-3979,1 52608U 22052L   22205.83334491 -.00018369  00000-0 -11389-2 0  9991,2 52608  53.2165 102.1271 0001906  52.8096 287.7746 15.08841963 11373,6917.874,95.437,541.058,538.4209999999998,0.0
52608.0,STARLINK-3979,PAYLOAD,2022-07-24 22:00:00,15.08841083,0.0001969,53.2164,101.7536,51.0105,22.4717,-0.0014092,-0.00022647,0.0,0 STARLINK-3979,1 52608U 22052L   22205.91667824 -.00022647  00000-0 -14092-2 0  9997,2 52608  53.2164 101.7536 0001969  51.0105  22.4717 15.08841083  1309,6917.877,95.437,541.104,538.38,0.0
52608.0,STARLINK-3979,PAYLOAD,2022-07-25 12:00:00,15.08822955,0.0001915,53.2167,99.134,52.479,311.2833,0.0017502,0.00027663,0.0,0 STARLINK-3979,1 52608U 22052L   22206.50001157  .00027663  00000-0  17502-2 0  9994,2 52608  53.2167  99.1340 0001915  52.4790 311.2833 15.08822955 11475,6917.932,95.439,541.122,538.4730000000002,0.0
52608.0,STARLINK-3979,PAYLOAD,2022-07-25 14:00:01,15.08816591,0.0001898,53.2165,98.7596,53.3823,43.2788,0.0030497,0.00048552,0.0,0 STARLINK-3979,1 52608U 22052L   22206.58334491  .00048552  00000-0  30497-2 0  9990,2 52608  53.2165  98.7596 0001898  53.3823  43.2788 15.08816591  1309,6917.9519999999975,95.439,541.13,538.504,0.0
52608.0,STARLINK-3979,PAYLOAD,2022-07-25 22:00:00,15.08856649,0.0002078,53.2167,97.2647,51.9545,56.2931,-0.0013684,-0.00022011,0.0,0 STARLINK-3979,1 52608U 22052L   22206.91667824 -.00022011  00000-0 -13684-2 0  9999,2 52608  53.2167  97.2647 0002078  51.9545  56.2931 15.08856649  1300,6917.83,95.437,541.132,538.257,0.0
52608.0,STARLINK-3979,PAYLOAD,2022-07-26 12:00:00,15.08842235,0.0001966999999999,53.2171,94.645,53.4423,345.1222,0.0013347,0.00021019,0.0,0 STARLINK-3979,1 52608U 22052L   22207.50001157  .00021019  00000-0  13347-2 0  9997,2 52608  53.2171  94.6450 0001967  53.4423 345.1222 15.08842235 11621,6917.874,95.437,541.099,538.378,0.0
52608.0,STARLINK-3979,PAYLOAD,2022-07-26 14:00:01,15.08847093,0.0001966999999999,53.217,94.2706,54.2593,77.2064,0.00075172,0.00011698,0.0,0 STARLINK-3979,1 52608U 22052L   22207.58334491  .00011698  00000-0  75172-3 0  9992,2 52608  53.2170  94.2706 0001967  54.2593  77.2064 15.08847093  1305,6917.859,95.437,541.0840000000002,538.363,0.0
52608.0,STARLINK-3979,PAYLOAD,2022-07-26 22:00:00,15.08849463,0.0002068,53.2172,92.7758,51.0783,91.999,-0.0018142,-0.00029053,0.0,0 STARLINK-3979,1 52608U 22052L   22207.91667824 -.00029053  00000-0 -18142-2 0  9997,2 52608  53.2172  92.7758 0002068  51.0783  91.9990 15.08849463  1300,6917.851,95.437,541.1469999999998,538.286,0.0
52608.0,STARLINK-3979,PAYLOAD,2022-07-27 04:00:01,15.08822138,0.0002115,53.2172,91.654,47.7769,14.063,0.0025066999999999,0.00039813,0.0,0 STARLINK-3979,1 52608U 22052L   22208.16668981  .00039813  00000-0  25067-2 0  9997,2 52608  53.2172  91.6540 0002115  47.7769  14.0630 15.08822138 11720,6917.935,95.439,541.263,538.337,0.0
52608.0,STARLINK-3979,PAYLOAD,2022-07-27 14:00:01,15.0882535,0.0001958,53.2174,89.7817,54.8248,111.444,0.0025497,0.00040508,0.0,0 STARLINK-3979,1 52608U 22052L   22208.58334491  .00040508  00000-0  25497-2 0  9999,2 52608  53.2174  89.7817 0001958  54.8248 111.4440 15.08825350  1305,6917.925,95.438,541.145,538.436,0.0
52608.0,STARLINK-3979,PAYLOAD,2022-07-27 20:00:01,15.08867252,0.0002043,53.2176,88.6605,53.1955,31.7651,-0.0019468,-0.00031162,0.0,0 STARLINK-3979,1 52608U 22052L   22208.83334491 -.00031162  00000-0 -19468-2 0  9996,2 52608  53.2176  88.6605 0002043  53.1955  31.7651 15.08867252 11826,6917.797,95.436,541.075,538.249,0.0
52608.0,STARLINK-3979,PAYLOAD,2022-07-27 22:00:00,15.08863007,0.0002089999999999,53.2174,88.2869,51.6613,126.2051,-0.0020518,-0.00032816,0.0,0 STARLINK-3979,1 52608U 22052L   22208.91667824 -.00032816  00000-0 -20518-2 0  9999,2 52608  53.2174  88.2869 0002090  51.6613 126.2051 15.08863007  1308,6917.81,95.436,541.121,538.229,0.0
52608.0,STARLINK-3979,PAYLOAD,2022-07-28 14:00:01,15.08816923,0.0001876999999999,53.2174,85.2926,55.1399,145.9306,0.0024083,0.00038224,0.0,0 STARLINK-3979,1 52608U 22052L   22209.58334491  .00038224  00000-0  24083-2 0  9992,2 52608  53.2174  85.2926 0001877  55.1399 145.9306 15.08816923  1307,6917.951,95.439,541.114,538.5169999999998,0.0
52608.0,STARLINK-3979,PAYLOAD,2022-07-28 20:00:01,15.0885244,0.0001976,53.2175,84.1715,53.1412,66.6125,-0.0016381,-0.00026273,0.0,0 STARLINK-3979,1 52608U 22052L   22209.83334491 -.00026273  00000-0 -16381-2 0  9995,2 52608  53.2175  84.1715 0001976  53.1412  66.6125 15.08852440 11972,6917.842,95.437,541.0740000000002,538.34,0.0
52608.0,STARLINK-3979,PAYLOAD,2022-07-28 22:00:00,15.08842476,0.0002031,53.2174,83.7979,51.6189,161.0379,-0.00066366,-0.00010836,0.0,0 STARLINK-3979,1 52608U 22052L   22209.91667824 -.00010836  00000-0 -66366-3 0  9990,2 52608  53.2174  83.7979 0002031  51.6189 161.0379 15.08842476  1300,6917.873000000001,95.437,541.143,538.3330000000002,0.0
52608.0,STARLINK-3979,PAYLOAD,2022-07-29 12:00:00,15.08823828,0.0001857,53.2171,81.1778,55.6641,87.2918,0.0026215,0.00041662,0.0,0 STARLINK-3979,1 52608U 22052L   22210.50001157  .00041662  00000-0  26215-2 0  9995,2 52608  53.2171  81.1778 0001857  55.6641  87.2918 15.08823828 12072,6917.93,95.439,541.0790000000002,538.51,0.0
52608.0,STARLINK-3979,PAYLOAD,2022-07-29 14:00:01,15.08835062,0.0001864,53.2171,80.8035,57.5475,178.3032,0.0017279,0.00027315,0.0,0 STARLINK-3979,1 52608U 22052L   22210.58334491  .00027315  00000-0  17279-2 0  9992,2 52608  53.2171  80.8035 0001864  57.5475 178.3032 15.08835062  1304,6917.895,95.438,541.05,538.471,0.0
52608.0,STARLINK-3979,PAYLOAD,2022-07-29 20:00:01,15.08868236,0.0001927,53.217,79.6825,54.1669,100.3805,-0.0045429,-0.00071924,0.0,0 STARLINK-3979,1 52608U 22052L   22210.83334491 -.00071924  00000-0 -45429-2 0  9995,2 52608  53.2170  79.6825 0001927  54.1669 100.3805 15.08868236 12128,6917.794,95.436,540.992,538.326,0.0
52608.0,STARLINK-3979,PAYLOAD,2022-07-29 22:00:00,15.08844426,0.0001972,53.2169,79.3088,52.3334,195.1219,-0.0025314,-0.00040356,0.0,0 STARLINK-3979,1 52608U 22052L   22210.91667824 -.00040356  00000-0 -25314-2 0  9999,2 52608  53.2169  79.3088 0001972  52.3334 195.1219 15.08844426  1307,6917.8669999999975,95.437,541.096,538.368,0.0
52608.0,STARLINK-3979,PAYLOAD,2022-07-30 04:00:00,15.08821336,0.0001958,53.2165,78.1865,49.7876,116.3573,0.00072379,0.00011244,0.0,0 STARLINK-3979,1 52608U 22052L   22211.16667824  .00011244  00000-0  72379-3 0  9993,2 52608  53.2165  78.1865 0001958  49.7876 116.3573 15.08821336 12178,6917.937,95.439,541.1569999999998,538.448,0.0
52608.0,STARLINK-3979,PAYLOAD,2022-07-30 14:00:01,15.08815136,0.0001809,53.2166,76.3143,58.6928,211.9248,0.0020063,0.00031765,0.0,0 STARLINK-3979,1 52608U 22052L   22211.58334491  .00031765  00000-0  20063-2 0  9992,2 52608  53.2166  76.3143 0001809  58.6928 211.9248 15.08815136  1305,6917.956,95.439,541.073,538.57,0.0
